NORAD_CAT_ID,OBJECT_NAME,OBJECT_TYPE,EPOCH,MEAN_MOTION,ECCENTRICITY,INCLINATION,RA_OF_ASC_NODE,ARG_OF_PERICENTER,MEAN_ANOMALY,BSTAR,MEAN_MOTION_DOT,MEAN_MOTION_DDOT,TLE_LINE0,TLE_LINE1,TLE_LINE2,SEMIMAJOR_AXIS,PERIOD,APOGEE,PERIGEE,DECAYED
52566.0,STARLINK-3938,PAYLOAD,2022-06-10 22:00:00,15.44052394,0.0001546,53.2174,156.6288,37.5169,352.8735,-0.019589,-0.0083017999999999,0.0,0 STARLINK-3938,1 52566U 22051AK  22161.91667824 -.00830180  00000-0 -19589-1 0  9994,2 52566  53.2174 156.6288 0001546  37.5169 352.8735 15.44052394  4926,6812.301,93.261,435.219,433.11300000000006,0.0
52566.0,STARLINK-3938,PAYLOAD,2022-06-11 22:00:00,15.42267319,0.0001904,53.2174,151.9024,36.398,152.4715,-0.02088,-0.0084353,0.0,0 STARLINK-3938,1 52566U 22051AK  22162.91667824 -.00843530  00000-0 -20880-1 0  9994,2 52566  53.2174 151.9024 0001904  36.3980 152.4715 15.42267319  5070,6817.556,93.369,440.719,438.12300000000016,0.0
52566.0,STARLINK-3938,PAYLOAD,2022-06-12 14:00:01,15.41077332,0.0001536,53.2173,148.7598,46.0565,244.8865,-0.021792,-0.00845664,0.0,0 STARLINK-3938,1 52566U 22051AK  22163.58334491 -.00845664  00000-0 -21792-1 0  9992,2 52566  53.2173 148.7598 0001536  46.0565 244.8865 15.41077332  1304,6821.065,93.441,443.978,441.883,0.0
52566.0,STARLINK-3938,PAYLOAD,2022-06-12 22:00:00,15.4047799,0.0001541999999999,53.2175,147.1888,41.2568,299.6516,-0.022053,-0.00839355,0.0,0 STARLINK-3938,1 52566U 22051AK  22163.91667824 -.00839355  00000-0 -22053-1 0  9999,2 52566  53.2175 147.1888 0001542  41.2568 299.6516 15.40477990  5238,6822.835,93.477,445.752,443.648,0.0
52566.0,STARLINK-3938,PAYLOAD,2022-06-13 14:00:01,15.39288389,0.0001505,53.2172,144.0547,42.9412,35.7457,-0.023015,-0.00841882,0.0,0 STARLINK-3938,1 52566U 22051AK  22164.58334491 -.00841882  00000-0 -23015-1 0  9991,2 52566  53.2172 144.0547 0001505  42.9412  35.7457 15.39288389  1305,6826.349,93.55,449.242,447.187,0.0
52566.0,STARLINK-3938,PAYLOAD,2022-06-13 22:00:00,15.38692224,0.0001733,53.2174,142.4879,40.4756,86.02799999999998,-0.023436,-0.00840735,0.0,0 STARLINK-3938,1 52566U 22051AK  22164.91667824 -.00840735  00000-0 -23436-1 0  9990,2 52566  53.2174 142.4879 0001733  40.4756  86.0280 15.38692224  1303,6828.113,93.586,451.161,448.794,0.0
52566.0,STARLINK-3938,PAYLOAD,2022-06-14 14:00:01,15.375025099999998,0.0001708,53.2172,139.3621,44.2226,175.7651,-0.024465,-0.00843842,0.0,0 STARLINK-3938,1 52566U 22051AK  22165.58334491 -.00843842  00000-0 -24465-1 0  9990,2 52566  53.2172 139.3621 0001708  44.2226 175.7651 15.37502510  1302,6831.634,93.658,454.666,452.333,0.0
52566.0,STARLINK-3938,PAYLOAD,2022-06-14 22:00:00,15.36904703,0.0001641,53.2173,137.7996,46.1901,219.4674,-0.0248,-0.00839258,0.0,0 STARLINK-3938,1 52566U 22051AK  22165.91667824 -.00839258  00000-0 -24800-1 0  9995,2 52566  53.2173 137.7996 0001641  46.1901 219.4674 15.36904703  5547,6833.406,93.695,456.392,454.149,0.0
52566.0,STARLINK-3938,PAYLOAD,2022-06-15 14:00:01,15.35715493,0.000158,53.2174,134.6823,38.4585,316.3883,-0.025927,-0.00843868,0.0,0 STARLINK-3938,1 52566U 22051AK  22166.58334491 -.00843868  00000-0 -25927-1 0  9993,2 52566  53.2174 134.6823 0001580  38.4585 316.3883 15.35715493  1301,6836.933000000001,93.767,459.878,457.718,0.0
52566.0,STARLINK-3938,PAYLOAD,2022-06-15 22:00:00,15.35116773,0.0001594,53.2174,133.1244,39.8394,358.5302,-0.026234,-0.00838033,0.0,0 STARLINK-3938,1 52566U 22051AK  22166.91667824 -.00838033  00000-0 -26234-1 0  9999,2 52566  53.2174 133.1244 0001594  39.8394 358.5302 15.35116773  5696,6838.7109999999975,93.804,461.666,459.486,0.0
52566.0,STARLINK-3938,PAYLOAD,2022-06-16 02:00:01,15.34809879,0.0001785,53.2176,132.3464,41.1701,198.6955,-0.026029,-0.00824444,0.0,0 STARLINK-3938,1 52566U 22051AK  22167.08334491 -.00824444  00000-0 -26029-1 0  9992,2 52566  53.2176 132.3464 0001785  41.1701 198.6955 15.34809879  1309,6839.621999999999,93.823,462.708,460.266,0.0
52566.0,STARLINK-3938,PAYLOAD,2022-06-19 14:00:01,15.28564751,0.0001883,53.2176,116.09,34.1816,75.6816,-0.032267,-0.00838698,0.0,0 STARLINK-3938,1 52566U 22051AK  22170.58334491 -.00838698  00000-0 -32267-1 0  9998,2 52566  53.2176 116.0900 0001883  34.1816  75.6816 15.28564751  1301,6858.239000000001,94.206,481.395,478.81300000000016,0.0
52566.0,STARLINK-3938,PAYLOAD,2022-06-19 20:00:01,15.28116671,0.0001861,53.2176,114.9342,31.9939,14.1358,-0.032607,-0.0083613,0.0,0 STARLINK-3938,1 52566U 22051AK  22170.83334491 -.00836130  00000-0 -32607-1 0  9993,2 52566  53.2176 114.9342 0001861  31.9939  14.1358 15.28116671  6291,6859.58,94.234,482.721,480.168,0.0
52566.0,STARLINK-3938,PAYLOAD,2022-06-19 22:00:00,15.27968341,0.0002023,53.2178,114.5497,33.6662,111.1292,-0.032805,-0.00837313,0.0,0 STARLINK-3938,1 52566U 22051AK  22170.91667824 -.00837313  00000-0 -32805-1 0  9995,2 52566  53.2178 114.5497 0002023  33.6662 111.1292 15.27968341  1303,6860.024,94.243,483.276,480.501,0.0
52566.0,STARLINK-3938,PAYLOAD,2022-06-20 14:00:01,15.26778082,0.0001862,53.2176,111.4734,40.1373,172.3742,-0.034085,-0.00838717,0.0,0 STARLINK-3938,1 52566U 22051AK  22171.58334491 -.00838717  00000-0 -34085-1 0  9991,2 52566  53.2176 111.4734 0001862  40.1373 172.3742 15.26778082  1302,6863.5880000000025,94.316,486.731,484.175,0.0
52566.0,STARLINK-3938,PAYLOAD,2022-06-20 22:00:00,15.26181479,0.0001998,53.2177,109.9377,35.8083,209.4878,-0.034635,-0.00837071,0.0,0 STARLINK-3938,1 52566U 22051AK  22171.91667824 -.00837071  00000-0 -34635-1 0  9990,2 52566  53.2177 109.9377 0001998  35.8083 209.4878 15.26181479  6469,6865.377,94.353,488.614,485.87,0.0
52566.0,STARLINK-3938,PAYLOAD,2022-06-21 14:00:01,15.24991156,0.0001563,53.2176,106.8696,44.6915,264.0265,-0.036003,-0.00839091,0.0,0 STARLINK-3938,1 52566U 22051AK  22172.58334491 -.00839091  00000-0 -36003-1 0  9990,2 52566  53.2176 106.8696 0001563  44.6915 264.0265 15.24991156  1302,6868.949000000001,94.427,491.888,489.74,0.0
52566.0,STARLINK-3938,PAYLOAD,2022-06-21 22:00:00,15.24395574,0.0001573,53.2178,105.3381,44.0076,295.3472,-0.036644,-0.00838869,0.0,0 STARLINK-3938,1 52566U 22051AK  22172.91667824 -.00838869  00000-0 -36644-1 0  9999,2 52566  53.2178 105.3381 0001573  44.0076 295.3472 15.24395574  1301,6870.738,94.464,493.684,491.522,0.0
52566.0,STARLINK-3938,PAYLOAD,2022-06-22 00:00:02,15.24245982,0.0001727,53.2176,104.9561,38.4436,38.5221,-0.036781,-0.008383,0.0,0 STARLINK-3938,1 52566U 22051AK  22173.00002315 -.00838300  00000-0 -36781-1 0  9990,2 52566  53.2176 104.9561 0001727  38.4436  38.5221 15.24245982  6628,6871.188,94.473,494.239,491.866,0.0
52566.0,STARLINK-3938,PAYLOAD,2022-06-22 14:00:01,15.23202946,0.000156,53.2175,102.2783,40.5278,357.9551,-0.037908,-0.00837462,0.0,0 STARLINK-3938,1 52566U 22051AK  22173.58334491 -.00837462  00000-0 -37908-1 0  9996,2 52566  53.2175 102.2783 0001560  40.5278 357.9551 15.23202946  1303,6874.324000000001,94.538,497.261,495.117,0.0
52566.0,STARLINK-3938,PAYLOAD,2022-06-22 22:00:00,15.22608655,0.0001847,53.2177,100.7513,33.9449,33.0268,-0.038683,-0.00839462,0.0,0 STARLINK-3938,1 52566U 22051AK  22173.91667824 -.00839462  00000-0 -38683-1 0  9995,2 52566  53.2177 100.7513 0001847  33.9449  33.0268 15.22608655  1306,6876.113,94.575,499.24800000000016,496.708,0.0
52566.0,STARLINK-3938,PAYLOAD,2022-06-23 06:00:00,15.22009127,0.0001565999999999,53.2174,99.2263,46.805,47.9414,-0.039036,-0.00832688,0.0,0 STARLINK-3938,1 52566U 22051AK  22174.25001157 -.00832688  00000-0 -39036-1 0  9990,2 52566  53.2174  99.2263 0001566  46.8050  47.9414 15.22009127  6813,6877.918000000002,94.612,500.86,498.706,0.0
52566.0,STARLINK-3938,PAYLOAD,2022-06-23 14:00:01,15.21414877,0.0001754,53.2175,97.6997,39.168,82.6375,-0.039871,-0.00835474,0.0,0 STARLINK-3938,1 52566U 22051AK  22174.58334491 -.00835474  00000-0 -39871-1 0  9999,2 52566  53.2175  97.6997 0001754  39.1680  82.6375 15.21414877  1305,6879.709,94.649,502.781,500.367,0.0
52566.0,STARLINK-3938,PAYLOAD,2022-06-23 22:00:00,15.20820237,0.0001898,53.2176,96.1768,38.9119,109.2353,-0.040666,-0.00837199,0.0,0 STARLINK-3938,1 52566U 22051AK  22174.91667824 -.00837199  00000-0 -40666-1 0  9995,2 52566  53.2176  96.1768 0001898  38.9119 109.2353 15.20820237  1301,6881.502,94.686,504.673,502.061,0.0
52566.0,STARLINK-3938,PAYLOAD,2022-06-24 06:00:02,15.20221181,0.0001691,53.2173,94.6558,49.4402,124.3974,-0.041051,-0.00830868,0.0,0 STARLINK-3938,1 52566U 22051AK  22175.25002315 -.00830868  00000-0 -41051-1 0  9996,2 52566  53.2173  94.6558 0001691  49.4402 124.3974 15.20221181  6968,6883.31,94.723,506.339,504.011,0.0
52566.0,STARLINK-3938,PAYLOAD,2022-06-24 14:00:01,15.19627445,0.0001727,53.2174,93.1334,46.2342,152.4515,-0.041959,-0.00834324,0.0,0 STARLINK-3938,1 52566U 22051AK  22175.58334491 -.00834324  00000-0 -41959-1 0  9993,2 52566  53.2174  93.1334 0001727  46.2342 152.4515 15.19627445  1300,6885.103,94.76,508.157,505.779,0.0
52566.0,STARLINK-3938,PAYLOAD,2022-06-24 22:00:01,15.19032212,0.0001861,53.2176,91.615,42.5912,180.3522,-0.042741,-0.00844965,0.0,0 STARLINK-3938,1 52566U 22051AK  22175.91668981 -.00844965  00000-0 -42741-1 0  9996,2 52566  53.2176  91.6150 0001861  42.5912 180.3522 15.19032212  1302,6886.901,94.797,510.048,507.485,0.0
52566.0,STARLINK-3938,PAYLOAD,2022-06-25 06:00:00,15.18435699,0.0001571999999999,53.2173,90.0981,54.7607,191.5983,-0.043365,-0.00842689,0.0,0 STARLINK-3938,1 52566U 22051AK  22176.25001157 -.00842689  00000-0 -43365-1 0  9994,2 52566  53.2173  90.0981 0001572  54.7607 191.5983 15.18435699  7125,6888.705,94.834,511.653,509.487,0.0
52566.0,STARLINK-3938,PAYLOAD,2022-06-25 14:00:01,15.17839806,0.0001626,53.2174,88.5797,48.3772,220.7468,-0.044134,-0.00842946,0.0,0 STARLINK-3938,1 52566U 22051AK  22176.58334491 -.00842946  00000-0 -44134-1 0  9991,2 52566  53.2174  88.5797 0001626  48.3772 220.7468 15.17839806  1309,6890.5080000000025,94.872,513.493,511.252,0.0
